0 BREEZE-M DEB
1 38577U 08011Y   13282.19698242 -.00000157  00000-0 -12996-2 0  2545
2 38577 048.8354 176.8281 6607832 256.6267 318.4489 02.99554544 31113
0 BREEZE-M DEB
1 38577U 08011Y   13290.22863838 -.00000857  00000-0 -42686-2 0  2550
2 38577 048.8309 173.9318 6609556 259.1646 339.7392 02.99553645 31352
0 BREEZE-M DEB
1 38577U 08011Y   13291.55201528 -.00000920  00000-0 -45732-2 0  2566
2 38577 048.8300 173.4546 6609698 259.5821 326.8551 02.99552198 31397
